{
  "norad_id": 66129,
  "name": "STARLINK-35632",
  "history": [
    {
      "epoch": "2026-03-28T22:10:14.954880Z",
      "apogee_km": 475.92125090574336,
      "perigee_km": 474.5423531027809,
      "latitude_deg": 8.934336977349241e-06,
      "longitude_deg": 151.50943546505886,
      "height_km": 476.3132499922327,
      "semi_major_axis_km": 6853.368802004262,
      "eccentricity": 0.0001006,
      "inclination_deg": 53.1588,
      "raan_deg": 310.409,
      "arg_perigee_deg": 105.4014,
      "mean_anomaly_deg": 254.7098,
      "mean_motion_rev_day": 15.30194396
    },
    {
      "epoch": "2026-03-28T22:10:14.955744Z",
      "apogee_km": 475.92125090574336,
      "perigee_km": 474.5423531027809,
      "latitude_deg": 8.963061130052335e-06,
      "longitude_deg": 151.50943187657583,
      "height_km": 476.31324998809674,
      "semi_major_axis_km": 6853.368802004262,
      "eccentricity": 0.0001006,
      "inclination_deg": 53.1588,
      "raan_deg": 310.409,
      "arg_perigee_deg": 105.4014,
      "mean_anomaly_deg": 254.7098,
      "mean_motion_rev_day": 15.30194396
    },
    {
      "epoch": "2026-03-29T07:34:34.243104Z",
      "apogee_km": 476.00281468420326,
      "perigee_km": 474.3998188519108,
      "latitude_deg": 3.0401387525129227e-05,
      "longitude_deg": 8.22081966909805,
      "height_km": 476.0698235294478,
      "semi_major_axis_km": 6853.338316768057,
      "eccentricity": 0.00011695,
      "inclination_deg": 53.1588,
      "raan_deg": 308.587,
      "arg_perigee_deg": 87.8853,
      "mean_anomaly_deg": 272.2282,
      "mean_motion_rev_day": 15.30204606
    },
    {
      "epoch": "2026-03-30T13:21:35.256384Z",
      "apogee_km": 476.66361273420534,
      "perigee_km": 473.67214515454543,
      "latitude_deg": 1.6162108235969258e-05,
      "longitude_deg": -85.51868154530332,
      "height_km": 475.93323818880043,
      "semi_major_axis_km": 6853.304878944375,
      "eccentricity": 0.00021825,
      "inclination_deg": 53.1582,
      "raan_deg": 302.8249,
      "arg_perigee_deg": 84.9665,
      "mean_anomaly_deg": 275.1585,
      "mean_motion_rev_day": 15.30215805
    },
    {
      "epoch": "2026-03-30T21:11:51.181728Z",
      "apogee_km": 476.0532600634715,
      "perigee_km": 474.3428047060879,
      "latitude_deg": -3.726898725906715e-05,
      "longitude_deg": 155.07473817687784,
      "height_km": 476.0486227943911,
      "semi_major_axis_km": 6853.335032384779,
      "eccentricity": 0.00012479,
      "inclination_deg": 53.1579,
      "raan_deg": 301.3066,
      "arg_perigee_deg": 86.8295,
      "mean_anomaly_deg": 273.2848,
      "mean_motion_rev_day": 15.30205706
    },
    {
      "epoch": "2026-03-31T06:36:10.228896Z",
      "apogee_km": 475.875230147557,
      "perigee_km": 474.51141741312495,
      "latitude_deg": 8.174750621477062e-06,
      "longitude_deg": 11.78914778703257,
      "height_km": 476.0114839239767,
      "semi_major_axis_km": 6853.330323780341,
      "eccentricity": 9.95e-05,
      "inclination_deg": 53.1573,
      "raan_deg": 299.4866,
      "arg_perigee_deg": 83.2619,
      "mean_anomaly_deg": 276.8495,
      "mean_motion_rev_day": 15.30207283
    },
    {
      "epoch": "2026-04-01T20:13:28.303680Z",
      "apogee_km": 476.49549193539315,
      "perigee_km": 473.7596687149271,
      "latitude_deg": -4.957311607515437e-06,
      "longitude_deg": 158.63856065729746,
      "height_km": 476.2603291270708,
      "semi_major_axis_km": 6853.26458032516,
      "eccentricity": 0.0001996,
      "inclination_deg": 53.1575,
      "raan_deg": 292.2064,
      "arg_perigee_deg": 99.9314,
      "mean_anomaly_deg": 260.1912,
      "mean_motion_rev_day": 15.30229302
    },
    {
      "epoch": "2026-04-02T19:44:15.055008Z",
      "apogee_km": 475.9747069769219,
      "perigee_km": 474.24768843110087,
      "latitude_deg": -4.707960601454812e-06,
      "longitude_deg": 160.42512036921255,
      "height_km": 475.99247073975783,
      "semi_major_axis_km": 6853.248197704011,
      "eccentricity": 0.000126,
      "inclination_deg": 53.1576,
      "raan_deg": 287.6534,
      "arg_perigee_deg": 88.9003,
      "mean_anomaly_deg": 271.2142,
      "mean_motion_rev_day": 15.30234789
    },
    {
      "epoch": "2026-04-02T19:44:15.055872Z",
      "apogee_km": 475.9744328469942,
      "perigee_km": 474.24796256102854,
      "latitude_deg": -1.0178716485930155e-06,
      "longitude_deg": 160.42511950886595,
      "height_km": 475.9924760007734,
      "semi_major_axis_km": 6853.248197704011,
      "eccentricity": 0.00012596,
      "inclination_deg": 53.1576,
      "raan_deg": 287.6534,
      "arg_perigee_deg": 88.9003,
      "mean_anomaly_deg": 271.2142,
      "mean_motion_rev_day": 15.30234789
    },
    {
      "epoch": "2026-04-03T19:15:02.144160Z",
      "apogee_km": 475.6722793837571,
      "perigee_km": 474.7484481591191,
      "latitude_deg": 4.4699486501687053e-05,
      "longitude_deg": 162.21110455250755,
      "height_km": 475.8993325293391,
      "semi_major_axis_km": 6853.347363771438,
      "eccentricity": 6.74e-05,
      "inclination_deg": 53.1562,
      "raan_deg": 283.1012,
      "arg_perigee_deg": 63.017,
      "mean_anomaly_deg": 297.09,
      "mean_motion_rev_day": 15.30201576
    },
    {
      "epoch": "2026-04-04T18:45:51.282720Z",
      "apogee_km": 475.7786807192442,
      "perigee_km": 474.6519895953443,
      "latitude_deg": -1.4672467989356816e-05,
      "longitude_deg": 163.99084427920172,
      "height_km": 476.00786856888175,
      "semi_major_axis_km": 6853.352335157294,
      "eccentricity": 8.22e-05,
      "inclination_deg": 53.1582,
      "raan_deg": 278.5514,
      "arg_perigee_deg": 79.1574,
      "mean_anomaly_deg": 280.9519,
      "mean_motion_rev_day": 15.30199911
    },
    {
      "epoch": "2026-04-05T12:00:27.578880Z",
      "apogee_km": 475.9261771967822,
      "perigee_km": 474.5548163596777,
      "latitude_deg": -1.0885142427213631e-06,
      "longitude_deg": -98.70504261822722,
      "height_km": 476.08712186102053,
      "semi_major_axis_km": 6853.37749677823,
      "eccentricity": 0.00010005,
      "inclination_deg": 53.1591,
      "raan_deg": 275.2149,
      "arg_perigee_deg": 85.6742,
      "mean_anomaly_deg": 274.4373,
      "mean_motion_rev_day": 15.30191484
    },
    {
      "epoch": "2026-04-05T18:16:40.572480Z",
      "apogee_km": 475.97026682313754,
      "perigee_km": 474.5094010172188,
      "latitude_deg": 6.036252106878296e-05,
      "longitude_deg": 165.76975161371814,
      "height_km": 475.7717211466134,
      "semi_major_axis_km": 6853.376833920178,
      "eccentricity": 0.00010658,
      "inclination_deg": 53.1592,
      "raan_deg": 274.0013,
      "arg_perigee_deg": 59.8777,
      "mean_anomaly_deg": 300.233,
      "mean_motion_rev_day": 15.30191706
    },
    {
      "epoch": "2026-04-07T20:26:20.724864Z",
      "apogee_km": 475.4879959282307,
      "perigee_km": 474.8698268330245,
      "latitude_deg": -1.4004215480013871e-05,
      "longitude_deg": 121.58404382911361,
      "height_km": 475.78783457578714,
      "semi_major_axis_km": 6853.315911380628,
      "eccentricity": 4.51e-05,
      "inclination_deg": 53.1592,
      "raan_deg": 264.293,
      "arg_perigee_deg": 340.2425,
      "mean_anomaly_deg": 19.8558,
      "mean_motion_rev_day": 15.3021211
    },
    {
      "epoch": "2026-04-08T04:16:37.226496Z",
      "apogee_km": 476.3616861397895,
      "perigee_km": 474.0686915644419,
      "latitude_deg": -3.3962969824990265e-05,
      "longitude_deg": 2.1755793554144076,
      "height_km": 475.7674697378188,
      "semi_major_axis_km": 6853.352188852115,
      "eccentricity": 0.00016729,
      "inclination_deg": 53.1596,
      "raan_deg": 262.7752,
      "arg_perigee_deg": 72.4711,
      "mean_anomaly_deg": 287.6472,
      "mean_motion_rev_day": 15.3019996
    },
    {
      "epoch": "2026-04-08T18:23:05.704800Z",
      "apogee_km": 475.7363270767655,
      "perigee_km": 474.6916022557125,
      "latitude_deg": 3.34888606919337e-05,
      "longitude_deg": 147.24537689252867,
      "height_km": 475.9899067306354,
      "semi_major_axis_km": 6853.350964666239,
      "eccentricity": 7.622e-05,
      "inclination_deg": 53.1603,
      "raan_deg": 260.043,
      "arg_perigee_deg": 76.3955,
      "mean_anomaly_deg": 283.7131,
      "mean_motion_rev_day": 15.3020037
    },
    {
      "epoch": "2026-04-10T09:34:27.509664Z",
      "apogee_km": 475.8595737311962,
      "perigee_km": 474.51495151087056,
      "latitude_deg": -4.518829762742631e-06,
      "longitude_deg": -89.78656067539745,
      "height_km": 476.1088845530988,
      "semi_major_axis_km": 6853.324262621033,
      "eccentricity": 9.81e-05,
      "inclination_deg": 53.1584,
      "raan_deg": 252.4614,
      "arg_perigee_deg": 91.9881,
      "mean_anomaly_deg": 268.1232,
      "mean_motion_rev_day": 15.30209313
    },
    {
      "epoch": "2026-04-11T02:49:02.710272Z",
      "apogee_km": 475.88683126809883,
      "perigee_km": 474.49807258796136,
      "latitude_deg": -2.253994239668445e-05,
      "longitude_deg": 7.521105663258276,
      "height_km": 475.88014826561084,
      "semi_major_axis_km": 6853.32945192803,
      "eccentricity": 0.00010132,
      "inclination_deg": 53.1581,
      "raan_deg": 249.1239,
      "arg_perigee_deg": 72.3449,
      "mean_anomaly_deg": 287.7662,
      "mean_motion_rev_day": 15.30207575
    },
    {
      "epoch": "2026-04-13T01:50:36.644928Z",
      "apogee_km": 475.806212871812,
      "perigee_km": 474.59605042452495,
      "latitude_deg": 1.519762199619182e-05,
      "longitude_deg": 11.095544530801229,
      "height_km": 475.850258949105,
      "semi_major_axis_km": 6853.338131648168,
      "eccentricity": 8.829e-05,
      "inclination_deg": 53.1574,
      "raan_deg": 240.021,
      "arg_perigee_deg": 65.6692,
      "mean_anomaly_deg": 294.4401,
      "mean_motion_rev_day": 15.30204668
    }
  ]
}